SatCatId,ObjectName,LaunchYear,OrbitalPeriod,LaunchMass,StatusCode,Inclination,Status,UcsData,OrbitClassEstimated,LaunchSiteCountry,Owner,UseType,Purpose,LaunchVehicleClass,TLE1,TLE2,MeanMotion,Eccentricity,OrbitClass
21139,ASTRA 1B,1991,1461.78,-1.0,-,13.02,Inactive,0,GSO,French Guiana,SES,Unknown,Unknown,Unknown,1 21139U 91015A   25255.48760516 -.00000046  00000+0  00000+0 0  9997,2 21139  13.0222  24.2157 0006410  23.7138 337.4558  0.98510232113554,0.98510232,0.000641,GSO
21140,METEOSAT-5 (MOP-2),1991,1462.67,-1.0,-,14.75,Inactive,0,GSO,French Guiana,ESA,Unknown,Unknown,Unknown,1 21140U 91015B   25254.28472110 -.00000040  00000+0  00000+0 0  9990,2 21140  14.7462 351.9923 0011438 247.3773 124.3177  0.98450204127463,0.98450204,0.0011438,GSO
21149,INMARSAT 2-F2,1991,1458.61,-1.0,-,12.62,Inactive,0,GSO,USA,INMARSAT,Unknown,Unknown,Unknown,1 21149U 91018A   25255.21987384 -.00000188  00000+0  00000+0 0  9993,2 21149  12.6223  10.8772 0003896 225.2242 142.4224  0.98724250 40713,0.9872425,0.0003896,GSO
21152,NADEZHDA 3,1991,104.77,-1.0,-,82.93,Inactive,0,LEO,Russia,Russia/USSR,Unknown,Unknown,Unknown,1 21152U 91019A   25255.47819904  .00000051  00000+0  37183-4 0  9993,2 21152  82.9296 149.8036 0042521 129.4425  43.0784 13.74470020730005,13.7447002,0.0042521,LEO
12967,SATCOM 3R,1981,1438.15,-1.0,UNK,12.42,Inactive,0,GSO,USA,USA,Unknown,Unknown,Unknown,1 12967U 81114A   25253.94753887  .00000019  00000+0  00000+0 0  9996,2 12967  12.4172 333.8169 0004173 267.0584 100.1745  1.00128354125273,1.00128354,0.0004173,GSO
4783,COSMOS 381,1970,104.73,-1.0,UNK,74.03,Inactive,0,LEO,Russia,Russia/USSR,Unknown,Unknown,Unknown,1 04783U 70102A   25254.90837305  .00000011  00000+0  35249-4 0  9993,2 04783  74.0311 113.2287 0030867 195.1514 164.8685 13.75012406747908,13.75012406,0.0030867,LEO
12975,COSMOS 1320,1981,117.26,-1.0,UNK,73.98,Inactive,0,LEO,Russia,Russia/USSR,Unknown,Unknown,Unknown,1 12975U 81116A   25254.93130814 -.00000031  00000+0 -13511-3 0  9997,2 12975  73.9814  56.0247 0097075 316.2319 165.4057 12.28041386963006,12.28041386,0.0097075,LEO
12976,COSMOS 1321,1981,117.23,-1.0,UNK,73.98,Inactive,0,LEO,Russia,Russia/USSR,Unknown,Unknown,Unknown,1 12976U 81116B   25254.89060359 -.00000022  00000+0 -56539-4 0  9997,2 12976  73.9828  42.1761 0094709 304.3339 171.7132 12.28394772963576,12.28394772,0.0094709,LEO
4786,COSMOS 382,1970,171.01,-1.0,UNK,55.86,Inactive,0,MEO,Kazakhstan,Russia/USSR,Unknown,Unknown,Unknown,1 04786U 70103A   25254.50547750 -.00000024  00000+0  00000+0 0  9992,2 04786  55.8598 249.1139 1356994 181.1997 358.0116  8.42042525685093,8.42042525,0.1356994,MEO
12977,COSMOS 1322,1981,117.19,-1.0,UNK,73.98,Inactive,0,LEO,Russia,Russia/USSR,Unknown,Unknown,Unknown,1 12977U 81116C   25254.85115093 -.00000014  00000+0  12074-4 0  9996,2 12977  73.9845  29.5241 0093568 287.1179 188.9757 12.28724762964075,12.28724762,0.0093568,LEO
12978,COSMOS 1323,1981,117.15,-1.0,UNK,73.99,Inactive,0,LEO,Russia,Russia/USSR,Unknown,Unknown,Unknown,1 12978U 81116D   25254.79289451 -.00000003  00000+0  10304-3 0  9991,2 12978  73.9864  11.5938 0090444 268.6241 165.4690 12.29203036964843,12.29203036,0.0090444,LEO
12979,COSMOS 1324,1981,117.1,-1.0,UNK,73.99,Inactive,0,LEO,Russia,Russia/USSR,Unknown,Unknown,Unknown,1 12979U 81116E   25255.53384963 -.00000001  00000+0  12546-3 0  9997,2 12979  73.9867 349.8799 0087914 243.4748 141.3973 12.29735354965795,12.29735354,0.0087914,LEO
12980,COSMOS 1325,1981,117.06,-1.0,UNK,73.99,Inactive,0,LEO,Russia,Russia/USSR,Unknown,Unknown,Unknown,1 12980U 81116F   25255.59331229 -.00000001  00000+0  12075-3 0  9999,2 12980  73.9862 334.8500 0085690 225.4849 201.4029 12.30131801966427,12.30131801,0.008569,LEO
12981,COSMOS 1326,1981,116.99,-1.0,UNK,73.98,Inactive,0,LEO,Russia,Russia/USSR,Unknown,Unknown,Unknown,1 12981U 81116G   25255.59575708 -.00000014  00000+0  11473-4 0  9998,2 12981  73.9828 306.8997 0082329 191.5754 241.7739 12.30851369948011,12.30851369,0.0082329,LEO
12982,COSMOS 1327,1981,116.92,-1.0,UNK,73.98,Inactive,0,LEO,Russia,Russia/USSR,Unknown,Unknown,Unknown,1 12982U 81116H   25255.49792723 -.00000022  00000+0 -61054-4 0  9996,2 12982  73.9791 276.4549 0076517 161.5756   7.3494 12.31642546968817,12.31642546,0.0076517,LEO
4793,NOAA 1,1970,114.83,-1.0,-,101.38,Inactive,0,LEO,USA,USA,Unknown,Unknown,Unknown,1 04793U 70106A   25255.61081789 -.00000050  00000+0 -44306-4 0  9993,2 04793 101.3818 296.9627 0031730 170.3081 358.3126 12.54045057505890,12.54045057,0.003173,LEO
12987,COSMOS 1328,1981,94.18,-1.0,UNK,82.5,Inactive,0,LEO,Russia,Russia/USSR,Unknown,Unknown,Unknown,1 12987U 81117A   25255.49892624  .00008619  00000+0  30363-3 0  9999,2 12987  82.4955 170.9637 0014742  91.2403 269.0525 15.29036951386784,15.29036951,0.0014742,LEO
4799,COSMOS 385,1970,104.58,-1.0,UNK,74.02,Inactive,0,LEO,Russia,Russia/USSR,Unknown,Unknown,Unknown,1 04799U 70108A   25254.93240729  .00000010  00000+0  33431-4 0  9997,2 04799  74.0211 133.2829 0003281 150.4552 308.8299 13.76954182750254,13.76954182,0.0003281,LEO
12994,INTELSAT 503,1981,1447.7,-1.0,-,11.64,Inactive,0,GSO,USA,INTELSAT,Unknown,Unknown,Unknown,1 12994U 81119A   25255.62862565 -.00000325  00000+0  00000+0 0  9993,2 12994  11.6428 328.8725 0047952 257.0838 119.2223  0.99467822123940,0.99467822,0.0047952,GSO
12997,RADIO 3,1981,118.43,-1.0,UNK,82.96,Inactive,0,LEO,Russia,Russia/USSR,Unknown,Unknown,Unknown,1 12997U 81120A   25255.47744622  .00000017  00000+0  70585-4 0  9991,2 12997  82.9566  58.3454 0059091 126.9236 239.0586 12.15866090940956,12.1586609,0.0059091,LEO
12998,RADIO 8,1981,119.68,-1.0,UNK,82.95,Inactive,0,LEO,Russia,Russia/USSR,Unknown,Unknown,Unknown,1 12998U 81120B   25255.47821517 -.00000029  00000+0 -45484-3 0  9995,2 12998  82.9529 271.2626 0018591 335.0134 179.7009 12.03193116920769,12.03193116,0.0018591,LEO
12999,RADIO 5,1981,119.47,-1.0,UNK,82.95,Inactive,0,LEO,Russia,Russia/USSR,Unknown,Unknown,Unknown,1 12999U 81120C   25255.22661633  .00000070  00000+0  70049-3 0  9999,2 12999  82.9533 236.5174 0014567 161.0347 209.2498 12.05289247924093,12.05289247,0.0014567,LEO
13000,RADIO 4,1981,119.31,-1.0,UNK,82.96,Inactive,0,LEO,Russia,Russia/USSR,Unknown,Unknown,Unknown,1 13000U 81120D   25255.60288294  .00000007  00000+0 -24493-4 0  9997,2 13000  82.9626 211.7227 0019132  26.2463 147.6699 12.06918892926667,12.06918892,0.0019132,LEO
13001,RADIO 7,1981,119.11,-1.0,UNK,82.96,Inactive,0,LEO,Russia,Russia/USSR,Unknown,Unknown,Unknown,1 13001U 81120E   25255.58201779  .00000000  00000+0 -10003-3 0  9992,2 13001  82.9643 175.0207 0022447 222.1558 312.4178 12.08943890929892,12.0894389,0.0022447,LEO
13002,RADIO 6,1981,118.63,-1.0,UNK,82.95,Inactive,0,LEO,Russia,Russia/USSR,Unknown,Unknown,Unknown,1 13002U 81120F   25255.56875450 -.00000020  00000+0 -30176-3 0  9990,2 13002  82.9541  93.0036 0051320 268.0898 117.5367 12.13841259937780,12.13841259,0.005132,LEO
21196,MOLNIYA 3-40,1991,709.35,-1.0,UNK,64.72,Inactive,0,MEO,Russia,Russia/USSR,Unknown,Unknown,Unknown,1 21196U 91022A   25249.12980861  .00001199  00000+0  00000+0 0  9998,2 21196  64.7194 213.2155 6403324 258.2408  28.1621  2.03002863253578,2.03002863,0.6403324,MEO
13010,MARECS-A,1981,1515.17,-1.0,-,12.01,Inactive,0,HEO,French Guiana,ESA,Unknown,Unknown,Unknown,1 13010U 81122A   25255.34692772 -.00000135  00000+0  00000+0 0  9996,2 13010  12.0060 330.7256 0119968 258.6001 115.2490  0.95039151108721,0.95039151,0.0119968,HEO
13011,CAT 4,1981,438.41,-1.0,-,10.58,Inactive,0,MEO,French Guiana,ESA,Unknown,Unknown,Unknown,1 13011U 81122B   25254.17013632  .00002138  00000+0  44277-3 0  9991,2 13011  10.5844 308.4886 6525359 344.9370   2.5322  3.28460034351678,3.28460034,0.6525359,MEO
13012,MOLNIYA 1-52,1981,717.66,-1.0,UNK,61.54,Inactive,0,MEO,Kazakhstan,Russia/USSR,Unknown,Unknown,Unknown,1 13012U 81123A   25251.74756089  .00001688  00000+0  34069-2 0  9999,2 13012  61.5382 112.9359 7324540 271.1739  14.0316  2.00651312320234,2.00651312,0.732454,MEO
29398,ZHONGXING-22A,2006,1438.54,-1.0,-,10.99,Inactive,0,GSO,PRC,China,Unknown,Unknown,Unknown,1 29398U 06038A   25255.15868693 -.00000058  00000+0  00000+0 0  9995,2 29398  10.9902  39.5949 0004897 141.2681 227.0231  1.00101329 69609,1.00101329,0.0004897,GSO
21216,COSMOS 2139 [GLONASS],1991,675.72,-1.0,-,64.54,Inactive,0,MEO,Kazakhstan,Russia/USSR,Unknown,Unknown,Unknown,1 21216U 91025A   25252.81025700 -.00000024  00000+0  00000+0 0  9993,2 21216  64.5441 314.2342 0018463 224.8803 135.0509  2.13105852267955,2.13105852,0.0018463,MEO
21217,COSMOS 2140 [GLONASS],1991,675.74,-1.0,-,64.53,Inactive,0,MEO,Kazakhstan,Russia/USSR,Unknown,Unknown,Unknown,1 21217U 91025B   25253.94337885 -.00000030  00000+0  00000+0 0  9996,2 21217  64.5327 314.0856 0026622 217.1903 139.5106  2.13101013267989,2.13101013,0.0026622,MEO
21218,COSMOS 2141 [GLONASS],1991,675.73,-1.0,-,64.53,Inactive,0,MEO,Kazakhstan,Russia/USSR,Unknown,Unknown,Unknown,1 21218U 91025C   25252.09090382 -.00000020  00000+0  00000+0 0  9999,2 21218  64.5266 314.0503 0006298 229.4530 134.1835  2.13103149267982,2.13103149,0.0006298,MEO
13027,COSMOS 1331,1982,100.17,-1.0,UNK,74.05,Inactive,0,LEO,Russia,Russia/USSR,Unknown,Unknown,Unknown,1 13027U 82001A   25255.54089129  .00000102  00000+0  42519-4 0  9998,2 13027  74.0474 306.6305 0024616 318.6835  41.2456 14.37592905287674,14.37592905,0.0024616,LEO
21222,ANIK E2,1991,1452.63,-1.0,-,13.85,Inactive,0,GSO,French Guiana,Canada,Unknown,Unknown,Unknown,1 21222U 91026A   25253.01572635 -.00000080  00000+0  00000+0 0  9990,2 21222  13.8542  14.4212 0003904  67.7667 291.5421  0.99130348114280,0.99130348,0.0003904,GSO
13033,COSMOS 1333,1982,104.85,-1.0,UNK,82.95,Inactive,0,LEO,Russia,Russia/USSR,Unknown,Unknown,Unknown,1 13033U 82003A   25255.56325723  .00000085  00000+0  74994-4 0  9994,2 13033  82.9461  10.3723 0031096 240.8044 129.3216 13.73441783188089,13.73441783,0.0031096,LEO
